#dP2021  7 31  0  0  0.00000000     289 ORBIT IGS14 BHN ESOC                    
## 2168 518400.00000000   300.00000000 59426 0.0000000000000                    
+  115   G13G28G21G22G07G05G20G31G17G15G16G29G12G19G02G25G01                    
+        G30G24G27G06G09G03G32G26G08G10G04G18G23G14R09R11R20                    
+        R19R13R01R22R16R08R03R07R02R17R18R21R05R15R12R04R24                    
+        E11E12E19E18E14E26E24E30E08E09E01E02E07E03E04E05E21                    
+        E25E27E31E36E13E15E33C11C12C14C19C20C27C28C22C21C29                    
+        C30C23C24C26C25C32C33C35C34C36C37C46C45C44C43C41C42                    
+        C06C07C08C09C10C13C16C38C39C40J01J02J03  0  0  0  0                    
++         4  5  5  5  5  5  5  5  5  5  5  5  4  4  5  4  4                    
++         5  4  5  4  5  5  5  5  5  5  4  5  5  3  7  5  6                    
++         6  6  6  6  6  5  6  6  6  4  5  6  5  5  5  5  5                    
++         5  5  4  5  5  5  5  4  4  5  4  4  4  4  5  5  4                    
++         5  4  5  5  5  5  5  5  5  5  6  5  5  5  6  5  5                    
++         5  5  5  5  5  5  5  5  5  5  5  5  5  5  5  5  5                    
++         6  6  5  6  6  6  6  8  7  7 11  7  6  0  0  0  0                    
%c M  cc GPS ccc cccc cccc cccc cccc ccccc ccccc ccccc ccccc                    
%c cc cc ccc ccc cccc cccc cccc cccc ccccc ccccc ccccc ccccc                    
%f  0.0000000  0.000000000  0.00000000000  0.000000000000000                    
%f  0.0000000  0.000000000  0.00000000000  0.000000000000000                    
%i    0    0    0    0      0      0      0      0         0                    
%i    0    0    0    0      0      0      0      0         0                    
/* CCCCCCCCCCCCCCCCCCCCCCCCCCCCCCCCCCCCCCCCCCCCCCCCCCCCCCCCCCCCCCCCCCCCCCCCCCCCC
/* CCCCCCCCCCCCCCCCCCCCCCCCCCCCCCCCCCCCCCCCCCCCCCCCCCCCCCCCCCCCCCCCCCCCCCCCCCCCC
/* CCCCCCCCCCCCCCCCCCCCCCCCCCCCCCCCCCCCCCCCCCCCCCCCCCCCCCCCCCCCCCCCCCCCCCCCCCCCC
/* PCV:IGS14      OL/AL:EOT11A   NONE     YN ORB:CoN CLK:CoN                    
*  2021  7 31 11 35  0.00000000                                                 
PG13 -21558.156944 -11019.369516  10950.078027    164.969417                    
PG28  -8922.924949 -12927.650431  21942.971241    528.281057                    
PG21  15256.569362  -7364.719656  21034.303569    134.517840                    
PG22  24415.096556  -9084.973218   4773.235710   -549.954019                    
PG07   6228.684690 -25221.287382  -3678.636357    214.798686                    
PG05 -24911.807267   5030.506345  -8169.017607    -49.619473                    
PG20 -19460.728128  -3428.402618 -17655.180137    519.902024                    
PG31   8927.420642  18550.143451 -16604.565150   -131.672555                    
PG17  -9396.715272 -20721.932696  14124.857459    482.154732                    
PG15 -21591.369841    416.996766  15308.033667   -131.700670                    
PG16  23379.786132   2107.860165 -13102.731640   -365.996740                    
PG29  -5925.250112  14114.551324 -21744.880605   -388.865454                    
PG12 -24029.665397  10591.926794  -3715.509523    -76.269008                    
PG19 -16333.373676 -20339.705908   5114.064060     33.468834                    
PG02 -13569.286876  -9141.636846 -20259.669720   -623.276307                    
PG25 -16320.162263  16529.136659 -12891.722999    183.044122                    
PG01  13217.580357 -15798.735138  16297.953066    611.731958                    
PG30  -1958.095593 -25152.965763   7974.523894   -456.998599                    
PG24 -14571.544658  11251.970060  18751.029102    193.485211                    
PG27  22989.057014  11403.746059   7370.224075   -171.242367                    
PG06  -7486.443540 -20311.495152 -15291.328521     48.388807                    
PG09   3310.377316 -16062.864986 -20950.664483   -357.393312                    
PG03  23231.178658 -12243.042653  -3643.856662   -238.037858                    
PG32  13269.321625  20156.116914  11405.999204     10.873719                    
PG26  15441.516911   8782.456218 -19879.240428    117.110343                    
PG08  21321.157770   2190.563574  15869.505049    -30.821492                    
PG10   3085.267440  14922.033241  21850.082014   -172.992369                    
PG04  14434.842404  -7207.329969 -21102.337711   -203.301781                    
PG18  -5116.384785  25972.614427  -1538.021060    336.835434                    
PG23  -9540.471053  17483.233964  17517.666484     77.158826                    
PG14  -2943.189402 -15147.779840  21610.192147     34.588596                    
PR09  -9410.586790  20595.233277 -11798.928242      5.678972                    
PR11  15208.406326  -3536.936872 -20149.981059     45.436829                    
PR20   1419.632732  22383.226162 -12184.524022    -53.376482                    
PR19  -8750.638911   6342.172829 -23111.397785   -153.640469                    
PR13  10000.397473 -20607.929599  11209.053083    -58.494682                    
PR01  20622.398892  -3776.420059 -14518.266366     83.111288                    
PR22  12653.767784   9358.138080  20084.066775   -125.463982                    
PR16 -17297.107622  18098.546686   4523.018551    -18.797321                    
PR08  25107.143923   4566.774582    -71.023536    -60.159648                    
PR03 -16815.680744 -10707.243179 -15839.009629     40.460759                    
PR07  17384.076458  10624.039686  15415.064782    -41.843132                    
PR02   1210.586728 -10817.016665 -23026.570182    488.034107                    
PR17 -10715.763132 -22439.162222  -5788.204243    445.755130                    
PR18 -12810.010269 -10143.663074 -19562.898402     85.296830                    
PR21  10996.173529  21888.453893   7051.871759   -227.991207                    
PR05 -19411.264190   4005.871254  16054.152982     76.298534                    
PR15 -15615.240059   3778.597605  19841.048961    102.357269                    
PR12  17960.401955 -17219.309367  -5622.033927    249.781516                    
PR04 -25091.840063  -4570.937368    137.617835     98.200518                    
PR24  -1971.362770 -22716.836238  11464.342399     52.633692                    
PE11  12829.888794 -16550.334348  20900.927986   5644.034998                    
PE12  16053.410726   6305.435310  24050.207320   5083.869563                    
PE19  17976.645468  19604.913114  12993.722654    340.486910                    
PE18 -24657.560249 -16521.329431  -5153.918359  -1665.595617                    
PE14  13125.025587  22111.951039  -9737.406841  -1519.187417                    
PE26  -1796.982281  29130.376742  -4915.849465   1516.083001                    
PE24  24873.049244 -16054.135324    527.405227  -1037.384207                    
PE30 -24159.573360   1539.798488  17026.602328   2739.961728                    
PE08 -27433.127745  -8183.281609   7561.300604   5961.648772                    
PE09  18724.963074  -7388.696733 -21690.131005   5582.025527                    
PE01   9617.856977  13496.276077 -24518.105446  -1161.673856                    
PE02  -9751.735681 -13414.877245  24522.401845    236.678807                    
PE07 -18989.940946   7267.786419  21523.738203   -568.174066                    
PE03 -19802.726221 -19067.971309 -10995.195634   -458.591524                    
PE04  27410.869918   8534.791052  -7194.588104   -824.963803                    
PE05   -417.562046 -18576.276446 -23038.304705   -260.928276                    
PE21  -9805.282691  20977.378390 -18435.335193   -679.320967                    
PE25   9997.448338 -21003.395396  18315.393805   -541.732123                    
PE27 -24428.735264  16652.607800  -1425.617268    -87.603338                    
PE31  24581.045489  -2590.518291 -16269.900352   -483.871349                    
PE36   2204.781564 -28939.356201   5807.397167   -241.924606                    
PE13 -12898.878051  16142.280681 -21198.093083    419.700922                    
PE15 -16006.003204  -6215.886695 -24112.518831    800.533925                    
PE33   9678.737374  24861.883497  12820.455872   -466.919311                    
PC11 -17675.548854  -3103.158479 -21327.890713    489.587098                    
PC12 -17729.395731 -19726.273023  -8693.819057    795.336474                    
PC14 -27836.048536   1530.292246   1868.005117    759.158756                    
PC19  24414.298034  -7802.798907 -10987.597275    929.298596                    
PC20  26995.780600   3823.399815   5876.957255   -830.749244                    
PC27  13508.506759  24424.437918   -304.665305    573.195348                    
PC28   -387.450838  22511.554350 -16481.694446    -44.183940                    
PC22   7554.302002 -15301.917084 -22073.712917   -949.135088                    
PC21 -13552.135496 -13799.743419 -20110.489559   -937.893918                    
PC29  13755.612615  -7943.444446  22933.313725    426.872904                    
PC30  19915.256752  11788.500282  15597.129510    475.834769                    
PC23 -10567.572710  25341.845065  -4983.223581   -964.584918                    
PC24 -16538.864564  -3255.698362  22239.106381   -964.303790                    
PC26  -5351.420023 -19247.816302  19493.504610    871.008418                    
PC25 -18823.868911  16888.457104  11778.265439   -877.578037                    
PC32  13573.182385  13741.684553  20149.341152   -927.443965                    
PC33 -24437.869441   7919.919636  10930.114551   -949.859676                    
PC35    -32.096133 -22334.986868  16702.438976   -161.744039                    
PC34 -19896.157245 -11027.511915 -16165.273103   -615.780416                    
PC36  19268.490433 -16163.892280 -12056.275353   -738.101914                    
PC37   4163.555113  19974.154513 -19006.592486   -862.431536                    
PC46  16951.277531   1941.392402 -22073.847236    153.787155                    
PC45  10417.627619 -25375.793580   5186.559318    507.982502                    
PC44 -14231.399768 -23982.317658    457.302928    317.085393                    
PC43 -14218.686145   7397.057750 -22854.120229   -846.384448                    
PC41  -7908.563775  15327.973197  21984.104714   -970.226093                    
PC42 -26787.680638  -4275.000304  -6552.692665   -926.018114                    
PC06  -5495.498544  30202.519144  29604.962315    695.085378                    
PC07 -21500.193601  25173.457884 -26096.202289     61.988045                    
PC08 -18290.949282  37711.060849  -1751.949506   -912.796133                    
PC09   6135.700473  37151.121269  19732.551253      8.969485                    
PC10  -7381.275026  27098.508902 -31302.767008    -13.253272                    
PC13  -9008.197556  39455.499550  11451.083398    356.526976                    
PC16  -3256.397188  30840.734732  28801.219172   -886.880169                    
PC38 -16881.703135  38544.642135   -204.120311    165.338848                    
PC39   -940.098089  30999.071521  28651.004989     32.671769                    
PC40 -12971.187697  21932.376544 -33598.684601    185.736379                    
PJ01 -29075.290449  22189.590275  26057.814081   -428.131595                    
PJ02 -35937.828027  21978.928130   1874.472269     -1.173610                    
PJ03 -19606.491915  23598.281457 -24291.649486     -0.454279                    
EOF                                                                             
